[{"OBJECT_NAME":"STARLINK-30446","OBJECT_ID":"2023-144J","EPOCH":"2026-03-09T13:29:00.069504","MEAN_MOTION":15.27587322,"ECCENTRICITY":0.00017956,"INCLINATION":43.0018,"RA_OF_ASC_NODE":271.7939,"ARG_OF_PERICENTER":273.4287,"MEAN_ANOMALY":86.636,"EPHEMERIS_TYPE":0,"CLASSIFICATION_TYPE":"U","NORAD_CAT_ID":57872,"ELEMENT_SET_NO":999,"REV_AT_EPOCH":13751,"BSTAR":-1.9035768e-5,"MEAN_MOTION_DOT":-7.86e-6,"MEAN_MOTION_DDOT":0},{"OBJECT_NAME":"KUIPER-00274","OBJECT_ID":"2026-030AE","EPOCH":"2026-03-09T22:00:01.999584","MEAN_MOTION":15.29896925,"ECCENTRICITY":0.00182929,"INCLINATION":51.8831,"RA_OF_ASC_NODE":218.6923,"ARG_OF_PERICENTER":71.2033,"MEAN_ANOMALY":115.2248,"EPHEMERIS_TYPE":0,"CLASSIFICATION_TYPE":"U","NORAD_CAT_ID":67792,"ELEMENT_SET_NO":999,"REV_AT_EPOCH":410,"BSTAR":0.0017989756,"MEAN_MOTION_DOT":0.00053102,"MEAN_MOTION_DDOT":0}]
